[{"OBJECT_NAME":"STARLINK-32296","OBJECT_ID":"2024-183R","EPOCH":"2026-03-09T11:22:25.830048","MEAN_MOTION":15.30190017,"ECCENTRICITY":0.00010748,"INCLINATION":53.1599,"RA_OF_ASC_NODE":143.1375,"ARG_OF_PERICENTER":85.5353,"MEAN_ANOMALY":274.577,"EPHEMERIS_TYPE":0,"CLASSIFICATION_TYPE":"U","NORAD_CAT_ID":61524,"ELEMENT_SET_NO":999,"REV_AT_EPOCH":7962,"BSTAR":-6.944284e-6,"MEAN_MOTION_DOT":-5.65e-6,"MEAN_MOTION_DDOT":0},{"OBJECT_NAME":"TEVEL2-2","OBJECT_ID":"2025-052K","EPOCH":"2026-03-09T15:33:48.895776","MEAN_MOTION":15.30343745,"ECCENTRICITY":0.0004693,"INCLINATION":97.3987,"RA_OF_ASC_NODE":324.77,"ARG_OF_PERICENTER":105.793,"MEAN_ANOMALY":254.3828,"EPHEMERIS_TYPE":0,"CLASSIFICATION_TYPE":"U","NORAD_CAT_ID":63219,"ELEMENT_SET_NO":999,"REV_AT_EPOCH":5485,"BSTAR":0.00069428,"MEAN_MOTION_DOT":0.00020339,"MEAN_MOTION_DDOT":0}]
