STARLINK-32296          
1 61524U 24183R   26068.47391007 -.00000565  00000+0 -69443-5 0  9997
2 61524  53.1599 143.1375 0001074  85.5353 274.5770 15.30190017 79620
TEVEL2-2                
1 63219U 25052K   26068.64848259  .00020339  00000+0  69428-3 0  9991
2 63219  97.3987 324.7700 0004693 105.7930 254.3828 15.30343745 54855
